[{"OBJECT_NAME":"STARLINK-34572","OBJECT_ID":"2025-142AA","EPOCH":"2026-03-09T23:26:58.405632","MEAN_MOTION":14.98349579,"ECCENTRICITY":0.00030239,"INCLINATION":70.0008,"RA_OF_ASC_NODE":313.7389,"ARG_OF_PERICENTER":270.4355,"MEAN_ANOMALY":89.6458,"EPHEMERIS_TYPE":0,"CLASSIFICATION_TYPE":"U","NORAD_CAT_ID":64720,"ELEMENT_SET_NO":999,"REV_AT_EPOCH":3969,"BSTAR":0.0003472454,"MEAN_MOTION_DOT":4.055e-5,"MEAN_MOTION_DDOT":0},{"OBJECT_NAME":"SL-16 DEB","OBJECT_ID":"1992-093LA","EPOCH":"2026-02-20T04:21:44.148672","MEAN_MOTION":14.94798833,"ECCENTRICITY":0.00217312,"INCLINATION":71.2188,"RA_OF_ASC_NODE":0.2564,"ARG_OF_PERICENTER":24.1632,"MEAN_ANOMALY":336.0549,"EPHEMERIS_TYPE":0,"CLASSIFICATION_TYPE":"U","NORAD_CAT_ID":39848,"ELEMENT_SET_NO":999,"REV_AT_EPOCH":60757,"BSTAR":0.0046757079,"MEAN_MOTION_DOT":0.00051467,"MEAN_MOTION_DDOT":0}]
